[Satellite]
VERSION=1.1
NAME=PEGASUS
NICKNAME=PEGASUS
TLE1=1 42784U 17036V   19317.82360407  .00001102  00000-0  50069-4 0  9991
TLE2=2 42784  97.3336  12.3104 0013585  72.6412 287.6309 15.22761449132803
STATUS=0
